IRIDIUM 921 [-]         
1 24873U 97034E   24099.32902795  .00019994  00000+0  59637-3 0  9992
2 24873  86.3824 322.5896 0005423 132.2489 227.9223 15.34514256464451
IRIDIUM 26 [-]          
1 24903U 97043A   24100.01172392  .00000466  00000+0  15288-3 0  9995
2 24903  86.3903 292.8032 0002311  90.5282 269.6180 14.36269925394407
IRIDIUM 22 [-]          
1 24907U 97043E   24100.01394142  .00000426  00000+0  14247-3 0  9998
2 24907  86.3910 295.9868 0002069  90.8025 269.3408 14.35162947394481
DUMMY MASS 1 [-]        
1 24925U 97048A   24099.90963071  .00000465  00000+0  49932-4 0  9994
2 24925  86.3362 336.0142 0004713 233.8370 126.2419 14.86126509440614
DUMMY MASS 2 [-]        
1 24926U 97048B   24099.93500636  .00000466  00000+0  50267-4 0  9996
2 24926  86.3367 337.5328 0005288 250.7927 109.2725 14.85885588440402
IRIDIUM 29 [-]          
1 24944U 97051A   24099.89912678  .00000393  00000+0  12948-3 0  9990
2 24944  86.3956 325.9716 0001924  91.6376 268.5041 14.35622130390941
IRIDIUM 33 [-]          
1 24946U 97051C   24100.00097893  .00000276  00000+0  91083-4 0  9999
2 24946  86.3870 325.1855 0009776  62.4385 297.7803 14.34304171390494
IRIDIUM 28 [-]          
1 24948U 97051E   24099.87922241  .00000407  00000+0  13175-3 0  9998
2 24948  86.3957 323.7444 0002547  84.9257 275.2230 14.36571150391475
